{
  "type": "FeatureCollection",
  "features": [
    {
      "type": "Feature",
      "properties": {
        "norad_id": 34079,
        "name": "IRIDIUM 33 DEB",
        "group": "iridium-33-debris",
        "lat": -30.721646487254517,
        "lon": -164.66903539404072,
        "alt_km": 630.3906721172134,
        "timestamp": "2025-12-02T19:35:50.939694+00:00",
        "meta_object_name": "IRIDIUM 33 DEB",
        "meta_object_id": "1997-051CN",
        "meta_epoch": "2025-12-02T02:41:47.766624",
        "meta_mean_motion": 14.83089059,
        "meta_eccentricity": 0.00068188,
        "meta_inclination": 86.379,
        "meta_ra_of_asc_node": 13.4941,
        "meta_arg_of_pericenter": 39.8853,
        "meta_mean_anomaly": 13.4166,
        "meta_ephemeris_type": 0,
        "meta_classification_type": "U",
        "meta_norad_cat_id": 34079,
        "meta_element_set_no": 999,
        "meta_rev_at_epoch": 88820,
        "meta_bstar": 0.0017614737,
        "meta_mean_motion_dot": 0.00014386,
        "meta_mean_motion_ddot": 0,
        "tle_line1": "1 34079U 97051CN  25336.11235841  .00014386  00000+0  17615-2 0  9992",
        "tle_line2": "2 34079  86.3790  13.4941 0006818  39.8853  13.4166 14.83089059888203"
      },
      "geometry": {
        "type": "Point",
        "coordinates": [
          -164.66903539404072,
          -30.721646487254517
        ]
      }
    },
    {
      "type": "Feature",
      "properties": {
        "norad_id": 34088,
        "name": "IRIDIUM 33 DEB",
        "group": "iridium-33-debris",
        "lat": 27.882232075257722,
        "lon": 37.19697795214279,
        "alt_km": 598.6052746309615,
        "timestamp": "2025-12-02T19:35:50.939705+00:00",
        "meta_object_name": "IRIDIUM 33 DEB",
        "meta_object_id": "1997-051CX",
        "meta_epoch": "2025-12-02T05:14:28.919328",
        "meta_mean_motion": 14.90549339,
        "meta_eccentricity": 0.0005127,
        "meta_inclination": 86.3866,
        "meta_ra_of_asc_node": 35.5553,
        "meta_arg_of_pericenter": 216.8077,
        "meta_mean_anomaly": 203.5525,
        "meta_ephemeris_type": 0,
        "meta_classification_type": "U",
        "meta_norad_cat_id": 34088,
        "meta_element_set_no": 999,
        "meta_rev_at_epoch": 88585,
        "meta_bstar": 0.0030879,
        "meta_mean_motion_dot": 0.00030304,
        "meta_mean_motion_ddot": 0,
        "tle_line1": "1 34088U 97051CX  25336.21839027  .00030304  00000+0  30879-2 0  9994",
        "tle_line2": "2 34088  86.3866  35.5553 0005127 216.8077 203.5525 14.90549339885857"
      },
      "geometry": {
        "type": "Point",
        "coordinates": [
          37.19697795214279,
          27.882232075257722
        ]
      }
    },
    {
      "type": "Feature",
      "properties": {
        "norad_id": 34091,
        "name": "IRIDIUM 33 DEB",
        "group": "iridium-33-debris",
        "lat": -22.367127323973868,
        "lon": -107.11795293054385,
        "alt_km": 646.8071604754978,
        "timestamp": "2025-12-02T19:35:50.939715+00:00",
        "meta_object_name": "IRIDIUM 33 DEB",
        "meta_object_id": "1997-051DA",
        "meta_epoch": "2025-12-02T05:42:26.763264",
        "meta_mean_motion": 14.80503091,
        "meta_eccentricity": 0.0032917,
        "meta_inclination": 86.342,
        "meta_ra_of_asc_node": 71.638,
        "meta_arg_of_pericenter": 331.035,
        "meta_mean_anomaly": 28.9043,
        "meta_ephemeris_type": 0,
        "meta_classification_type": "U",
        "meta_norad_cat_id": 34091,
        "meta_element_set_no": 999,
        "meta_rev_at_epoch": 87711,
        "meta_bstar": 0.0059169,
        "meta_mean_motion_dot": 0.00045975,
        "meta_mean_motion_ddot": 0,
        "tle_line1": "1 34091U 97051DA  25336.23780976  .00045975  00000+0  59169-2 0  9991",
        "tle_line2": "2 34091  86.3420  71.6380 0032917 331.0350  28.9043 14.80503091877115"
      },
      "geometry": {
        "type": "Point",
        "coordinates": [
          -107.11795293054385,
          -22.367127323973868
        ]
      }
    },
    {
      "type": "Feature",
      "properties": {
        "norad_id": 34097,
        "name": "IRIDIUM 33 DEB",
        "group": "iridium-33-debris",
        "lat": -51.222251357116455,
        "lon": 1.043854426833266,
        "alt_km": 778.1892867863808,
        "timestamp": "2025-12-02T19:35:50.939726+00:00",
        "meta_object_name": "IRIDIUM 33 DEB",
        "meta_object_id": "1997-051DG",
        "meta_epoch": "2025-12-02T03:05:43.364832",
        "meta_mean_motion": 14.34646707,
        "meta_eccentricity": 0.00838008,
        "meta_inclination": 86.2012,
        "meta_ra_of_asc_node": 6.091,
        "meta_arg_of_pericenter": 36.59,
        "meta_mean_anomaly": 324.0979,
        "meta_ephemeris_type": 0,
        "meta_classification_type": "U",
        "meta_norad_cat_id": 34097,
        "meta_element_set_no": 999,
        "meta_rev_at_epoch": 86967,
        "meta_bstar": 0.001439253,
        "meta_mean_motion_dot": 4.252e-05,
        "meta_mean_motion_ddot": 0,
        "tle_line1": "1 34097U 97051DG  25336.12897413  .00004252  00000+0  14393-2 0  9993",
        "tle_line2": "2 34097  86.2012   6.0910 0083800  36.5900 324.0979 14.34646707869674"
      },
      "geometry": {
        "type": "Point",
        "coordinates": [
          1.043854426833266,
          -51.222251357116455
        ]
      }
    },
    {
      "type": "Feature",
      "properties": {
        "norad_id": 34145,
        "name": "IRIDIUM 33 DEB",
        "group": "iridium-33-debris",
        "lat": -49.21992513839764,
        "lon": -27.4588941776137,
        "alt_km": 797.4683273354776,
        "timestamp": "2025-12-02T19:35:50.939737+00:00",
        "meta_object_name": "IRIDIUM 33 DEB",
        "meta_object_id": "1997-051DY",
        "meta_epoch": "2025-12-02T04:50:28.112064",
        "meta_mean_motion": 14.42171439,
        "meta_eccentricity": 0.005521,
        "meta_inclination": 86.2116,
        "meta_ra_of_asc_node": 337.2204,
        "meta_arg_of_pericenter": 127.3566,
        "meta_mean_anomaly": 233.2681,
        "meta_ephemeris_type": 0,
        "meta_classification_type": "U",
        "meta_norad_cat_id": 34145,
        "meta_element_set_no": 999,
        "meta_rev_at_epoch": 87486,
        "meta_bstar": 0.0012017,
        "meta_mean_motion_dot": 4.048e-05,
        "meta_mean_motion_ddot": 0,
        "tle_line1": "1 34145U 97051DY  25336.20171426  .00004048  00000+0  12017-2 0  9999",
        "tle_line2": "2 34145  86.2116 337.2204 0055210 127.3566 233.2681 14.42171439874861"
      },
      "geometry": {
        "type": "Point",
        "coordinates": [
          -27.4588941776137,
          -49.21992513839764
        ]
      }
    },
    {
      "type": "Feature",
      "properties": {
        "norad_id": 34146,
        "name": "IRIDIUM 33 DEB",
        "group": "iridium-33-debris",
        "lat": 67.0327200287747,
        "lon": 3.0057007885317533,
        "alt_km": 740.1723905118779,
        "timestamp": "2025-12-02T19:35:50.939747+00:00",
        "meta_object_name": "IRIDIUM 33 DEB",
        "meta_object_id": "1997-051DZ",
        "meta_epoch": "2025-12-02T07:45:12.587040",
        "meta_mean_motion": 14.48929067,
        "meta_eccentricity": 0.0024975,
        "meta_inclination": 86.284,
        "meta_ra_of_asc_node": 354.4024,
        "meta_arg_of_pericenter": 259.0769,
        "meta_mean_anomaly": 115.7131,
        "meta_ephemeris_type": 0,
        "meta_classification_type": "U",
        "meta_norad_cat_id": 34146,
        "meta_element_set_no": 999,
        "meta_rev_at_epoch": 87956,
        "meta_bstar": 0.0011939,
        "meta_mean_motion_dot": 4.556e-05,
        "meta_mean_motion_ddot": 0,
        "tle_line1": "1 34146U 97051DZ  25336.32306235  .00004556  00000+0  11939-2 0  9997",
        "tle_line2": "2 34146  86.2840 354.4024 0024975 259.0769 115.7131 14.48929067879569"
      },
      "geometry": {
        "type": "Point",
        "coordinates": [
          3.0057007885317533,
          67.0327200287747
        ]
      }
    },
    {
      "type": "Feature",
      "properties": {
        "norad_id": 34159,
        "name": "IRIDIUM 33 DEB",
        "group": "iridium-33-debris",
        "lat": 22.495723940103638,
        "lon": -129.04240206737202,
        "alt_km": 781.7163114937212,
        "timestamp": "2025-12-02T19:35:50.939758+00:00",
        "meta_object_name": "IRIDIUM 33 DEB",
        "meta_object_id": "1997-051EN",
        "meta_epoch": "2025-12-02T05:30:39.557664",
        "meta_mean_motion": 14.38450658,
        "meta_eccentricity": 0.0026569,
        "meta_inclination": 86.3516,
        "meta_ra_of_asc_node": 52.7218,
        "meta_arg_of_pericenter": 324.6126,
        "meta_mean_anomaly": 35.3308,
        "meta_ephemeris_type": 0,
        "meta_classification_type": "U",
        "meta_norad_cat_id": 34159,
        "meta_element_set_no": 999,
        "meta_rev_at_epoch": 87808,
        "meta_bstar": 0.00054436,
        "meta_mean_motion_dot": 1.686e-05,
        "meta_mean_motion_ddot": 0,
        "tle_line1": "1 34159U 97051EN  25336.22962451  .00001686  00000+0  54436-3 0  9999",
        "tle_line2": "2 34159  86.3516  52.7218 0026569 324.6126  35.3308 14.38450658878087"
      },
      "geometry": {
        "type": "Point",
        "coordinates": [
          -129.04240206737202,
          22.495723940103638
        ]
      }
    }
  ]
}